#dP2022  1 13  0  0  0.00000000      97 __u+U IGS14 FIT  IAC
## 2192 345600.00000000   900.00000000 59592 0.0000000000000
+  124   C01C02C03C04C05C06C07C08C09C10C11C12C13C14C16C19C20
+        C21C22C23C24C25C26C27C28C29C30C32C33C34C35C36C37C38
+        C39C40C41C42C43C44C45C46C59C60E01E02E03E04E05E07E08
+        E09E11E12E13E14E15E18E19E21E24E25E26E27E30E31E33E36
+        G01G02G03G04G05G06G07G08G09G10G11G12G13G14G15G16G17
+        G18G19G20G21G22G23G24G25G26G27G28G29G30G31G32J01J02
+        J03J07R01R02R03R04R05R07R08R09R11R12R13R14R15R17R18
+        R19R20R21R22R24  0  0  0  0  0  0  0  0  0  0  0  0
++        15 15 15 15 15  8  9  9  8  9  8  8  8  8  9  7  6
++         7  7  7  7  7  7  7  7  7  6  6  7  7  7  7  7  7
++         7  7  7  7  7  7  7  7 16 15  4  4  4  4  4  4  4
++         4  4  4  4  4  4  4  4  4  4  4  4  4  4  4  4  4
++         3  3  3  3  4  3  3  3  3  3  3  3  3  3  3  4  3
++         3  3  4  3  3  3  3  3  4  4  4  3  3  4  3  8  8
++         8 15  7  5  5  5  5  5  6  6  7  5  6  5  6  6  6
++         7  7  5  7  5  0  0  0  0  0  0  0  0  0  0  0  0
%c M  cc GPS ccc cccc cccc cccc cccc ccccc ccccc ccccc ccccc
%c cc cc ccc ccc cccc cccc cccc cccc ccccc ccccc ccccc ccccc
%f  1.2500000  1.025000000  0.00000000000  0.000000000000000
%f  0.0000000  0.000000000  0.00000000000  0.000000000000000
%i    0    0    0    0      0      0      0      0         0
%i    0    0    0    0      0      0      0      0         0
/* INFORMATION & ANALYSIS CENTER (IAC)            FINAL DATA
/* S/V CLOCKS ARE ALIGNED TO GNSS TIME                      
/* G:C1WC2W R:C1PC2P E:C1XC5X C:C2IC6I J:C1CC2S             
/* PCV:IGS14_2188 OL/AL:FES2004  NONE     YN ORB:CoN CLK:CoN
*  2022 01 13  1 45  0.00000000
PC01 -34347.730125  24437.858230   -244.035131   -243.380959
PC02   4425.554010  41962.195258    789.214584    716.827850
PC03 -14803.883499  39516.901299    -57.165174    568.006090
PC04 -39617.666989  14407.064074   -622.067836    -97.632513
PC05  21922.136390  36026.435989   1215.417427   -515.902778
PC06  -1849.015684  27881.439260  31614.865076   -131.469470
PC07 -16484.580805  30618.979656 -23913.094417      6.729091
PC08  -8347.249183  40855.551344  -5577.964817     54.640409
PC09   5657.503098  31594.760844  27895.263098   -429.891695
PC10  -9991.341467  30486.872635 -27305.724673    139.363897
PC11   3829.685412 -16102.259356  22544.538011   -274.174358
PC12  18946.872418  -1881.722557  20439.900402   -433.415070
PC13  -4129.787679  41811.828540    159.743140   -148.692943
PC14  14453.470695 -17680.939479 -15984.978654    471.584569
PC16  -4979.984484  25706.388291  33230.545515     53.938895
PC19  -4245.822236  17503.540410  21341.258169    910.634096
PC20 -21063.560768  15570.708538   9669.129324   -804.568744
PC21  26241.856632  -4092.486965   8555.212499   -962.510435
PC22  15660.604703   9402.397086  21090.163212   -960.187765
PC23  -9985.776366 -19064.636885  17767.508894   -967.773236
PC24  13589.258163 -19565.381362 -14577.497290   -945.808526
PC25   1298.201614 -27715.157322   3103.939206   -795.691724
PC26  16469.743768  -1993.610346 -22456.585417    794.321540
PC27 -23120.718960  -6017.735031 -14422.213494    660.432078
PC28 -20461.765463 -18830.428096   2367.321737     20.160755
PC29   6385.439664  20402.171717 -17941.121506    500.619173
PC30 -12526.656999  10280.934864 -22717.372962    491.014423
PC32 -26208.691774   4275.776907  -8571.122264   -958.016182
PC33   4225.461834 -17552.619332 -21273.080016   -955.395970
PC34  11782.769610 -10974.057938  22788.079816   -493.143411
PC35  20789.665321  18403.082361  -2995.800067     90.329142
PC36  -2270.142431  27680.375750  -2641.510141   -864.069353
PC37 -16398.035591    283.581683  22585.226220   -939.398753
PC38 -12484.191621  38129.441773 -12680.633873    203.646588
PC39  -8128.110896  23352.726944  34166.125598     34.626058
PC40 -24097.977720  25263.792447 -23752.131771    235.069225
PC41 -15342.205614  -9613.547073 -21185.372424   -922.841020
PC42  21673.649175 -15214.677417  -8745.414782   -929.363759
PC43  -5601.619474 -20331.287283  18260.072498   -948.397966
PC44  23448.932047   5369.367128  14168.802133    529.737415
PC45  10045.408242  18818.599705 -17980.176518    652.276031
PC46 -12936.316906  20612.665686  13614.273696   -111.521481
PC59 -32278.324271  27107.026931    603.031841     -0.323534
PC60   7295.336461  41508.479372  -1305.406848     -0.283820
PE01 -20787.553083  20096.622790   6303.749091   -558.369065
PE02  20751.087301 -20210.437857  -6160.022301    273.216249
PE03  21686.013815  -9799.597615 -17604.694531   -516.460333
PE04  -1605.034342  17003.924991  24175.963265   -941.493846
PE05  29411.171223   3310.476391   -551.961230   -219.145483
PE07 -19905.373086 -14313.493694 -16588.794213   -627.793009
PE08   1030.486151 -16922.025415 -24268.496939   5873.046854
PE09  20149.375123  14052.720832  16504.317271   5397.094092
PE11  15343.351246  24341.418217   6977.776522   4690.813015
PE12   2611.969706  26737.727934 -12439.346554   4812.982328
PE13 -15099.146156 -24645.370777  -6365.307605    425.586230
PE14  -9174.705382  18336.158100 -24558.990209  -1708.169538
PE15  -2602.312055 -26658.959607  12606.474292    769.650689
PE18  -3918.637896 -16872.547038  17578.963143  -1880.296291
PE19 -23531.360773   8225.867519  15956.779133    476.098847
PE21 -20780.838864   4160.390027  20657.454018   -710.896386
PE24   7889.480986  16079.946466 -23573.748129  -1332.079938
PE25  20712.006094  -3933.289289 -20780.090552   -560.076620
PE26 -18628.079981  -7068.449479 -21880.513345   -681.081577
PE27  -8859.847413 -15089.002363  23878.683024   -208.253301
PE30   9193.980282 -25430.366907  12056.884267   -187.317221
PE31  -8163.430915  25286.891484 -13024.476129   -490.675666
PE33 -11361.349979  12961.581190 -24053.486337   -460.453582
PE36  18656.418824   8155.168143  21497.689578   -317.257707
PG01  14413.428889  -2161.700685  21937.887315    458.791126
PG02 -14561.246270 -18818.479032 -11018.760153   -648.475492
PG03  21548.932143 -10646.095193  11084.292022    -76.094506
PG04  23959.436489   -953.243514 -11507.000436   -195.210555
PG05 -16515.526990  -3572.785612 -20689.010472    -67.701997
PG06  -5181.096892 -25927.582803   2165.578048    169.278023
PG07   7698.650610 -18480.786723 -16825.835561    301.180208
PG08  26045.701177   6042.595073    774.175062    -51.927315
PG09  15704.552800  -9944.379180 -19055.782249   -358.088830
PG10  -7788.510479  21139.595314  13963.843091   -292.145913
PG11 -12222.844356 -20698.769360 -11317.809155    -38.005099
PG12 -21911.293343   7266.621795  12752.828037   -154.981121
PG13 -22380.907310 -13497.565762  -5335.421519    244.447957
PG14   9106.241027 -21053.355184  13330.243892    -69.814723
PG15 -26509.573304  -3284.723152    753.127752    -91.970581
PG16  13658.170488   7948.196169 -21671.176563   -454.796160
PG17   1126.391625 -15290.329293  22124.451509    560.643722
PG18  -7350.501464  19064.902758 -16915.176206    261.917852
PG19  -8174.556366 -16745.283209  18736.399417    104.811875
PG20  -9403.032841 -13129.145087 -21127.104180    517.198436
PG21  17219.563511   7620.205426  19640.922674    155.982728
PG22  19501.657450  -3256.531419  17804.078465   -418.853127
PG23 -16386.255143  20545.076849   3481.292397     11.772074
PG24 -16644.006482  -2047.630081  20384.344170    277.138586
PG25 -19871.103888  17136.196856   2694.621630    270.049993
PG26   3131.678103  17724.216376 -19511.093448    173.851936
PG27  21661.589076  12634.048748  -9515.183585     65.059909
PG28   2156.801475 -18801.522454  19254.028434    423.297614
PG29 -18935.552062   5836.244678 -17758.350064   -466.573668
PG30   1342.662468 -24590.670347  -9555.890462   -506.327736
PG31   6461.075603  25489.825736   -638.036049   -159.674946
PG32   4229.216062  16235.979849  20754.303249    -49.634534
PJ01 -32430.148951  22959.562324  19142.445840    297.959436
PJ02 -33750.865565  24708.891580  10463.534709     -0.755787
PJ03 -21646.226225  20077.560186 -25455.447596     -0.153020
PJ07 -25365.273141  33670.775245     16.434449     -0.026555
PR01   -359.410496 -11194.791254 -22918.486349      7.192028
PR02 -19613.494890  -3871.859540 -15761.902822    506.319403
PR03 -24948.627559   5133.218331    571.112058     49.828610
PR04 -16288.117979  10890.577035  16349.153229    123.246023
PR05   1370.529214  10730.750894  23107.684932     85.862270
PR07  24931.876728  -5387.879187  -1164.224985     30.615883
PR08  16244.113098 -10997.016381 -16269.534575    -63.050884
PR09   8492.565152   9319.165665 -22170.892797     33.786243
PR11  10528.190023 -22270.939341  -6597.407433     47.312518
PR12   1728.049166 -22618.914198  11711.101140    294.459693
PR13  -7741.852184 -10266.765366  22011.145488    -16.971906
PR14 -13196.285811   9325.954600  19747.076326     73.155381
PR15 -10614.996937  22431.543545   5905.408119     98.935482
PR17 -15333.361041  -3860.649878 -20013.580815    492.089741
PR18  -4226.602010  10772.336012 -22717.295059    103.661609
PR19   7715.479045  19669.015967 -14283.906037   -174.224971
PR20  17438.058503  17836.099796   5456.272076    -62.951653
PR21  14567.161734   2662.203157  20769.079226   -269.641020
PR22   3631.066221 -11321.119228  22546.275571   -157.716622
PR24 -18001.323801 -17037.132347  -6034.170344     75.411517
EOF
